FLOCK 4Q-11             
1 58273U 23174T   26062.80415313  .00033855  00000+0  72257-3 0  9992
2 58273  97.3917 149.3100 0007631 174.1876 185.9462 15.44776801129293
FLOCK 4Q-36             
1 58274U 23174U   26062.80306151  .00038194  00000+0  66214-3 0  9999
2 58274  97.3902 151.9161 0007686 164.8534 195.2949 15.50762680129461
FLOCK 4Q-12             
1 58275U 23174V   26062.94235149  .00101721  00000+0  17366-2 0  9993
2 58275  97.3889 151.9414 0005889 171.0231 189.1127 15.50941266129508
FLOCK 4Q-28             
1 58280U 23174AA  26062.81649015  .00038891  00000+0  72754-3 0  9996
2 58280  97.3924 151.0589 0007273 170.9672 189.1710 15.48592168129401
FLOCK 4Q-27             
1 58282U 23174AC  26062.81227559  .00040439  00000+0  75694-3 0  9990
2 58282  97.3862 150.5989 0006691 165.7449 194.3992 15.48571184129415
FLOCK 4Q-26             
1 58284U 23174AE  26062.79350783  .00043453  00000+0  76305-3 0  9994
2 58284  97.3915 151.9934 0007253 168.7339 191.4076 15.50375348129460
FLOCK 4Q-31             
1 58285U 23174AF  26062.69376950  .00044197  00000+0  78999-3 0  9995
2 58285  97.3959 151.5340 0007899 171.3277 188.8112 15.49862061129409
FLOCK 4Q-30             
1 58286U 23174AG  26062.81170429  .00046483  00000+0  82360-3 0  9990
2 58286  97.3965 151.8352 0007579 166.6949 193.4504 15.50103843129439
PELICAN-1               
1 58296U 23174AS  26062.55615108  .00099332  00000+0  10652-2 0  9995
2 58296  97.4024 157.0194 0008697 249.1810 110.8518 15.63449254129605
FLOCK 4Q-25             
1 58303U 23174AZ  26062.80779879  .00062735  00000+0  90147-3 0  9993
2 58303  97.3877 152.6694 0005187 153.1282 207.0242 15.55878435129558
FLOCK 4Q-29             
1 58304U 23174BA  26062.96602271  .00047506  00000+0  87229-3 0  9998
2 58304  97.3947 151.5969 0007972 158.5389 201.6198 15.49077051129436
FLOCK 4Q-22             
1 58306U 23174BC  26062.80692674  .00048818  00000+0  81986-3 0  9990
2 58306  97.3862 151.5998 0006694 162.2117 197.9371 15.51614322129483
FLOCK 4Q-23             
1 58307U 23174BD  26062.77567400  .00064904  00000+0  97325-3 0  9993
2 58307  97.3970 153.0933 0006997 159.0362 201.1180 15.54691288129511
FLOCK 4Q-33             
1 58308U 23174BE  26062.78979483  .00043511  00000+0  75474-3 0  9995
2 58308  97.3890 151.5235 0007491 152.9143 207.2501 15.50721339129465
FLOCK 4Q-35             
1 58309U 23174BF  26062.96646971  .00051202  00000+0  91836-3 0  9995
2 58309  97.3910 151.8776 0008289 165.2240 194.9255 15.49727542129472
FLOCK 4Q-34             
1 58316U 23174BN  26062.78751802  .00065292  00000+0  97259-3 0  9992
2 58316  97.3872 152.5109 0006795 160.7974 199.3537 15.54873842129528
