[{"OBJECT_NAME":"FLOCK 4Q-11","OBJECT_ID":"2023-174T","EPOCH":"2026-03-03T19:17:58.830432","MEAN_MOTION":15.44776801,"ECCENTRICITY":0.00076316,"INCLINATION":97.3917,"RA_OF_ASC_NODE":149.31,"ARG_OF_PERICENTER":174.1876,"MEAN_ANOMALY":185.9462,"EPHEMERIS_TYPE":0,"CLASSIFICATION_TYPE":"U","NORAD_CAT_ID":58273,"ELEMENT_SET_NO":999,"REV_AT_EPOCH":12929,"BSTAR":0.00072257023,"MEAN_MOTION_DOT":0.00033855,"MEAN_MOTION_DDOT":0},{"OBJECT_NAME":"FLOCK 4Q-36","OBJECT_ID":"2023-174U","EPOCH":"2026-03-03T19:16:24.514464","MEAN_MOTION":15.5076268,"ECCENTRICITY":0.00076861,"INCLINATION":97.3902,"RA_OF_ASC_NODE":151.9161,"ARG_OF_PERICENTER":164.8534,"MEAN_ANOMALY":195.2949,"EPHEMERIS_TYPE":0,"CLASSIFICATION_TYPE":"U","NORAD_CAT_ID":58274,"ELEMENT_SET_NO":999,"REV_AT_EPOCH":12946,"BSTAR":0.00066214165,"MEAN_MOTION_DOT":0.00038194,"MEAN_MOTION_DDOT":0},{"OBJECT_NAME":"FLOCK 4Q-12","OBJECT_ID":"2023-174V","EPOCH":"2026-03-03T22:36:59.168736","MEAN_MOTION":15.50941266,"ECCENTRICITY":0.00058895,"INCLINATION":97.3889,"RA_OF_ASC_NODE":151.9414,"ARG_OF_PERICENTER":171.0231,"MEAN_ANOMALY":189.1127,"EPHEMERIS_TYPE":0,"CLASSIFICATION_TYPE":"U","NORAD_CAT_ID":58275,"ELEMENT_SET_NO":999,"REV_AT_EPOCH":12950,"BSTAR":0.0017365959,"MEAN_MOTION_DOT":0.00101721,"MEAN_MOTION_DDOT":0},{"OBJECT_NAME":"FLOCK 4Q-28","OBJECT_ID":"2023-174AA","EPOCH":"2026-03-03T19:35:44.748960","MEAN_MOTION":15.48592168,"ECCENTRICITY":0.00072739,"INCLINATION":97.3924,"RA_OF_ASC_NODE":151.0589,"ARG_OF_PERICENTER":170.9672,"MEAN_ANOMALY":189.171,"EPHEMERIS_TYPE":0,"CLASSIFICATION_TYPE":"U","NORAD_CAT_ID":58280,"ELEMENT_SET_NO":999,"REV_AT_EPOCH":12940,"BSTAR":0.00072753673,"MEAN_MOTION_DOT":0.00038891,"MEAN_MOTION_DDOT":0},{"OBJECT_NAME":"FLOCK 4Q-27","OBJECT_ID":"2023-174AC","EPOCH":"2026-03-03T19:29:40.610976","MEAN_MOTION":15.48571184,"ECCENTRICITY":0.00066914,"INCLINATION":97.3862,"RA_OF_ASC_NODE":150.5989,"ARG_OF_PERICENTER":165.7449,"MEAN_ANOMALY":194.3992,"EPHEMERIS_TYPE":0,"CLASSIFICATION_TYPE":"U","NORAD_CAT_ID":58282,"ELEMENT_SET_NO":999,"REV_AT_EPOCH":12941,"BSTAR":0.00075694427,"MEAN_MOTION_DOT":0.00040439,"MEAN_MOTION_DDOT":0},{"OBJECT_NAME":"FLOCK 4Q-26","OBJECT_ID":"2023-174AE","EPOCH":"2026-03-03T19:02:39.076512","MEAN_MOTION":15.50375348,"ECCENTRICITY":0.00072532,"INCLINATION":97.3915,"RA_OF_ASC_NODE":151.9934,"ARG_OF_PERICENTER":168.7339,"MEAN_ANOMALY":191.4076,"EPHEMERIS_TYPE":0,"CLASSIFICATION_TYPE":"U","NORAD_CAT_ID":58284,"ELEMENT_SET_NO":999,"REV_AT_EPOCH":12946,"BSTAR":0.00076305351,"MEAN_MOTION_DOT":0.00043453,"MEAN_MOTION_DDOT":0},{"OBJECT_NAME":"FLOCK 4Q-31","OBJECT_ID":"2023-174AF","EPOCH":"2026-03-03T16:39:01.684800","MEAN_MOTION":15.49862061,"ECCENTRICITY":0.00078995,"INCLINATION":97.3959,"RA_OF_ASC_NODE":151.534,"ARG_OF_PERICENTER":171.3277,"MEAN_ANOMALY":188.8112,"EPHEMERIS_TYPE":0,"CLASSIFICATION_TYPE":"U","NORAD_CAT_ID":58285,"ELEMENT_SET_NO":999,"REV_AT_EPOCH":12940,"BSTAR":0.00078999462,"MEAN_MOTION_DOT":0.00044197,"MEAN_MOTION_DDOT":0},{"OBJECT_NAME":"FLOCK 4Q-30","OBJECT_ID":"2023-174AG","EPOCH":"2026-03-03T19:28:51.250656","MEAN_MOTION":15.50103843,"ECCENTRICITY":0.0007579,"INCLINATION":97.3965,"RA_OF_ASC_NODE":151.8352,"ARG_OF_PERICENTER":166.6949,"MEAN_ANOMALY":193.4504,"EPHEMERIS_TYPE":0,"CLASSIFICATION_TYPE":"U","NORAD_CAT_ID":58286,"ELEMENT_SET_NO":999,"REV_AT_EPOCH":12943,"BSTAR":0.00082359802,"MEAN_MOTION_DOT":0.00046483,"MEAN_MOTION_DDOT":0},{"OBJECT_NAME":"PELICAN-1","OBJECT_ID":"2023-174AS","EPOCH":"2026-03-03T13:20:51.453312","MEAN_MOTION":15.63449254,"ECCENTRICITY":0.0008697,"INCLINATION":97.4024,"RA_OF_ASC_NODE":157.0194,"ARG_OF_PERICENTER":249.181,"MEAN_ANOMALY":110.8518,"EPHEMERIS_TYPE":0,"CLASSIFICATION_TYPE":"U","NORAD_CAT_ID":58296,"ELEMENT_SET_NO":999,"REV_AT_EPOCH":12960,"BSTAR":0.0010652,"MEAN_MOTION_DOT":0.00099332,"MEAN_MOTION_DDOT":0},{"OBJECT_NAME":"FLOCK 4Q-25","OBJECT_ID":"2023-174AZ","EPOCH":"2026-03-03T19:23:13.815456","MEAN_MOTION":15.55878435,"ECCENTRICITY":0.0005187,"INCLINATION":97.3877,"RA_OF_ASC_NODE":152.6694,"ARG_OF_PERICENTER":153.1282,"MEAN_ANOMALY":207.0242,"EPHEMERIS_TYPE":0,"CLASSIFICATION_TYPE":"U","NORAD_CAT_ID":58303,"ELEMENT_SET_NO":999,"REV_AT_EPOCH":12955,"BSTAR":0.00090147408,"MEAN_MOTION_DOT":0.00062735,"MEAN_MOTION_DDOT":0},{"OBJECT_NAME":"FLOCK 4Q-29","OBJECT_ID":"2023-174BA","EPOCH":"2026-03-03T23:11:04.362144","MEAN_MOTION":15.49077051,"ECCENTRICITY":0.00079724,"INCLINATION":97.3947,"RA_OF_ASC_NODE":151.5969,"ARG_OF_PERICENTER":158.5389,"MEAN_ANOMALY":201.6198,"EPHEMERIS_TYPE":0,"CLASSIFICATION_TYPE":"U","NORAD_CAT_ID":58304,"ELEMENT_SET_NO":999,"REV_AT_EPOCH":12943,"BSTAR":0.00087229362,"MEAN_MOTION_DOT":0.00047506,"MEAN_MOTION_DDOT":0},{"OBJECT_NAME":"FLOCK 4Q-22","OBJECT_ID":"2023-174BC","EPOCH":"2026-03-03T19:21:58.470336","MEAN_MOTION":15.51614322,"ECCENTRICITY":0.00066943,"INCLINATION":97.3862,"RA_OF_ASC_NODE":151.5998,"ARG_OF_PERICENTER":162.2117,"MEAN_ANOMALY":197.9371,"EPHEMERIS_TYPE":0,"CLASSIFICATION_TYPE":"U","NORAD_CAT_ID":58306,"ELEMENT_SET_NO":999,"REV_AT_EPOCH":12948,"BSTAR":0.00081985556,"MEAN_MOTION_DOT":0.00048818,"MEAN_MOTION_DDOT":0},{"OBJECT_NAME":"FLOCK 4Q-23","OBJECT_ID":"2023-174BD","EPOCH":"2026-03-03T18:36:58.233600","MEAN_MOTION":15.54691288,"ECCENTRICITY":0.00069972,"INCLINATION":97.397,"RA_OF_ASC_NODE":153.0933,"ARG_OF_PERICENTER":159.0362,"MEAN_ANOMALY":201.118,"EPHEMERIS_TYPE":0,"CLASSIFICATION_TYPE":"U","NORAD_CAT_ID":58307,"ELEMENT_SET_NO":999,"REV_AT_EPOCH":12951,"BSTAR":0.00097324965,"MEAN_MOTION_DOT":0.00064904,"MEAN_MOTION_DDOT":0},{"OBJECT_NAME":"FLOCK 4Q-33","OBJECT_ID":"2023-174BE","EPOCH":"2026-03-03T18:57:18.273312","MEAN_MOTION":15.50721339,"ECCENTRICITY":0.00074911,"INCLINATION":97.389,"RA_OF_ASC_NODE":151.5235,"ARG_OF_PERICENTER":152.9143,"MEAN_ANOMALY":207.2501,"EPHEMERIS_TYPE":0,"CLASSIFICATION_TYPE":"U","NORAD_CAT_ID":58308,"ELEMENT_SET_NO":999,"REV_AT_EPOCH":12946,"BSTAR":0.00075473677,"MEAN_MOTION_DOT":0.00043511,"MEAN_MOTION_DDOT":0},{"OBJECT_NAME":"FLOCK 4Q-35","OBJECT_ID":"2023-174BF","EPOCH":"2026-03-03T23:11:42.982944","MEAN_MOTION":15.49727542,"ECCENTRICITY":0.00082893,"INCLINATION":97.391,"RA_OF_ASC_NODE":151.8776,"ARG_OF_PERICENTER":165.224,"MEAN_ANOMALY":194.9255,"EPHEMERIS_TYPE":0,"CLASSIFICATION_TYPE":"U","NORAD_CAT_ID":58309,"ELEMENT_SET_NO":999,"REV_AT_EPOCH":12947,"BSTAR":0.00091836117,"MEAN_MOTION_DOT":0.00051202,"MEAN_MOTION_DDOT":0},{"OBJECT_NAME":"FLOCK 4Q-34","OBJECT_ID":"2023-174BN","EPOCH":"2026-03-03T18:54:01.556928","MEAN_MOTION":15.54873842,"ECCENTRICITY":0.00067953,"INCLINATION":97.3872,"RA_OF_ASC_NODE":152.5109,"ARG_OF_PERICENTER":160.7974,"MEAN_ANOMALY":199.3537,"EPHEMERIS_TYPE":0,"CLASSIFICATION_TYPE":"U","NORAD_CAT_ID":58316,"ELEMENT_SET_NO":999,"REV_AT_EPOCH":12952,"BSTAR":0.00097258597,"MEAN_MOTION_DOT":0.00065292,"MEAN_MOTION_DDOT":0}]
